import ephem

line11 = 'ISS (ZARYA)             \n'
line12 = '1 25544U 98067A   08334.54218750  .00025860  00000-0  20055-3 0  7556\n'
line13 = '2 25544 051.6425 248.8374 0006898 046.3246 303.9711 15.71618375574540594'
 
a = ephem.readtle(line11, line12, line13)
print(a)

line21 = 'ISS (ZARYA)'
line22 = '1 25544U 98067A   08334.54218750  .00025860  00000-0  20055-3 0  7556'
line23 = '2 25544 051.6425 248.8374 0006898 046.3246 303.9711 15.71618375574540594'
 
b = ephem.readtle(line21, line22, line23)
print(b)